[
  {
    "COMMENT": "GENERATED VIA SPACETRACK.ORG API",
    "ORIGINATOR": "18 SPCS",
    "NORAD_CAT_ID": "39086",
    "OBJECT_NAME": "SARAL",
    "OBJECT_TYPE": "PAYLOAD",
    "CLASSIFICATION_TYPE": "U",
    "INTLDES": "13009A",
    "EPOCH": "2023-07-25 14:13:42",
    "EPOCH_MICROSECONDS": "290976",
    "MEAN_MOTION": "14.3223762",
    "ECCENTRICITY": "0.0002403",
    "INCLINATION": "98.5486",
    "RA_OF_ASC_NODE": "31.323",
    "ARG_OF_PERICENTER": "142.307",
    "MEAN_ANOMALY": "217.8282",
    "EPHEMERIS_TYPE": "0",
    "ELEMENT_SET_NO": "999",
    "REV_AT_EPOCH": "54418",
    "BSTAR": "0.000071971",
    "MEAN_MOTION_DOT": "0.0000015",
    "MEAN_MOTION_DDOT": "0",
    "FILE": "3963759",
    "TLE_LINE0": "0 SARAL",
    "TLE_LINE1": "1 39086U 13009A   23206.59285059  .00000150  00000-0  71971-4 0  9990",
    "TLE_LINE2": "2 39086  98.5486  31.3230 0002403 142.3070 217.8282 14.32237620544188",
    "OBJECT_ID": "2013-009A",
    "OBJECT_NUMBER": "39086",
    "SEMIMAJOR_AXIS": "7162.398",
    "PERIOD": "100.542",
    "APOGEE": "785.984",
    "PERIGEE": "782.542",
    "DECAYED": "0"
  },
  {
    "COMMENT": "GENERATED VIA SPACETRACK.ORG API",
    "ORIGINATOR": "18 SPCS",
    "NORAD_CAT_ID": "39086",
    "OBJECT_NAME": "SARAL",
    "OBJECT_TYPE": "PAYLOAD",
    "CLASSIFICATION_TYPE": "U",
    "INTLDES": "13009A",
    "EPOCH": "2023-07-26 13:42:05",
    "EPOCH_MICROSECONDS": "942304",
    "MEAN_MOTION": "14.3223811",
    "ECCENTRICITY": "0.0002446",
    "INCLINATION": "98.5486",
    "RA_OF_ASC_NODE": "32.2869",
    "ARG_OF_PERICENTER": "140.1818",
    "MEAN_ANOMALY": "219.9545",
    "EPHEMERIS_TYPE": "0",
    "ELEMENT_SET_NO": "999",
    "REV_AT_EPOCH": "54432",
    "BSTAR": "0.000078075",
    "MEAN_MOTION_DOT": "0.00000167",
    "MEAN_MOTION_DDOT": "0",
    "FILE": "3963761",
    "TLE_LINE0": "0 SARAL",
    "TLE_LINE1": "1 39086U 13009A   23207.57090211  .00000167  00000-0  78075-4 0  9993",
    "TLE_LINE2": "2 39086  98.5486  32.2869 0002446 140.1818 219.9545 14.32238110544325",
    "OBJECT_ID": "2013-009A",
    "OBJECT_NUMBER": "39086",
    "SEMIMAJOR_AXIS": "7162.396",
    "PERIOD": "100.542",
    "APOGEE": "786.013",
    "PERIGEE": "782.510",
    "DECAYED": "0"
  },
  {
    "COMMENT": "GENERATED VIA SPACETRACK.ORG API",
    "ORIGINATOR": "18 SPCS",
    "NORAD_CAT_ID": "39086",
    "OBJECT_NAME": "SARAL",
    "OBJECT_TYPE": "PAYLOAD",
    "CLASSIFICATION_TYPE": "U",
    "INTLDES": "13009A",
    "EPOCH": "2023-07-26 20:24:29",
    "EPOCH_MICROSECONDS": "843424",
    "MEAN_MOTION": "14.32238173",
    "ECCENTRICITY": "0.0002457",
    "INCLINATION": "98.5486",
    "RA_OF_ASC_NODE": "32.5623",
    "ARG_OF_PERICENTER": "139.4866",
    "MEAN_ANOMALY": "220.6501",
    "EPHEMERIS_TYPE": "0",
    "ELEMENT_SET_NO": "999",
    "REV_AT_EPOCH": "54436",
    "BSTAR": "0.00007576",
    "MEAN_MOTION_DOT": "0.00000161",
    "MEAN_MOTION_DDOT": "0",
    "FILE": "3963989",
    "TLE_LINE0": "0 SARAL",
    "TLE_LINE1": "1 39086U 13009A   23207.85034541  .00000161  00000-0  75760-4 0  9990",
    "TLE_LINE2": "2 39086  98.5486  32.5623 0002457 139.4866 220.6501 14.32238173544366",
    "OBJECT_ID": "2013-009A",
    "OBJECT_NUMBER": "39086",
    "SEMIMAJOR_AXIS": "7162.396",
    "PERIOD": "100.542",
    "APOGEE": "786.021",
    "PERIGEE": "782.501",
    "DECAYED": "0"
  },
  {
    "COMMENT": "GENERATED VIA SPACETRACK.ORG API",
    "ORIGINATOR": "18 SPCS",
    "NORAD_CAT_ID": "39086",
    "OBJECT_NAME": "SARAL",
    "OBJECT_TYPE": "PAYLOAD",
    "CLASSIFICATION_TYPE": "U",
    "INTLDES": "13009A",
    "EPOCH": "2023-07-27 11:29:53",
    "EPOCH_MICROSECONDS": "603232",
    "MEAN_MOTION": "14.32238442",
    "ECCENTRICITY": "0.0002486",
    "INCLINATION": "98.5486",
    "RA_OF_ASC_NODE": "33.1819",
    "ARG_OF_PERICENTER": "138.3338",
    "MEAN_ANOMALY": "221.8036",
    "EPHEMERIS_TYPE": "0",
    "ELEMENT_SET_NO": "999",
    "REV_AT_EPOCH": "54445",
    "BSTAR": "0.000078008",
    "MEAN_MOTION_DOT": "0.00000167",
    "MEAN_MOTION_DDOT": "0",
    "FILE": "3964377",
    "TLE_LINE0": "0 SARAL",
    "TLE_LINE1": "1 39086U 13009A   23208.47909263  .00000167  00000-0  78008-4 0  9995",
    "TLE_LINE2": "2 39086  98.5486  33.1819 0002486 138.3338 221.8036 14.32238442544459",
    "OBJECT_ID": "2013-009A",
    "OBJECT_NUMBER": "39086",
    "SEMIMAJOR_AXIS": "7162.395",
    "PERIOD": "100.542",
    "APOGEE": "786.041",
    "PERIGEE": "782.480",
    "DECAYED": "0"
  },
  {
    "COMMENT": "GENERATED VIA SPACETRACK.ORG API",
    "ORIGINATOR": "18 SPCS",
    "NORAD_CAT_ID": "39086",
    "OBJECT_NAME": "SARAL",
    "OBJECT_TYPE": "PAYLOAD",
    "CLASSIFICATION_TYPE": "U",
    "INTLDES": "13009A",
    "EPOCH": "2023-07-27 13:10:29",
    "EPOCH_MICROSECONDS": "577216",
    "MEAN_MOTION": "14.32238437",
    "ECCENTRICITY": "0.000249",
    "INCLINATION": "98.5486",
    "RA_OF_ASC_NODE": "33.2508",
    "ARG_OF_PERICENTER": "138.2028",
    "MEAN_ANOMALY": "221.9346",
    "EPHEMERIS_TYPE": "0",
    "ELEMENT_SET_NO": "999",
    "REV_AT_EPOCH": "54446",
    "BSTAR": "0.000076032",
    "MEAN_MOTION_DOT": "0.00000161",
    "MEAN_MOTION_DDOT": "0",
    "FILE": "3964647",
    "TLE_LINE0": "0 SARAL",
    "TLE_LINE1": "1 39086U 13009A   23208.54895344  .00000161  00000-0  76032-4 0  9996",
    "TLE_LINE2": "2 39086  98.5486  33.2508 0002490 138.2028 221.9346 14.32238437544465",
    "OBJECT_ID": "2013-009A",
    "OBJECT_NUMBER": "39086",
    "SEMIMAJOR_AXIS": "7162.395",
    "PERIOD": "100.542",
    "APOGEE": "786.044",
    "PERIGEE": "782.477",
    "DECAYED": "0"
  },
  {
    "COMMENT": "GENERATED VIA SPACETRACK.ORG API",
    "ORIGINATOR": "18 SPCS",
    "NORAD_CAT_ID": "39086",
    "OBJECT_NAME": "SARAL",
    "OBJECT_TYPE": "PAYLOAD",
    "CLASSIFICATION_TYPE": "U",
    "INTLDES": "13009A",
    "EPOCH": "2023-07-27 21:33:29",
    "EPOCH_MICROSECONDS": "438496",
    "MEAN_MOTION": "14.32238566",
    "ECCENTRICITY": "0.0002509",
    "INCLINATION": "98.5486",
    "RA_OF_ASC_NODE": "33.5951",
    "ARG_OF_PERICENTER": "137.5324",
    "MEAN_ANOMALY": "222.6054",
    "EPHEMERIS_TYPE": "0",
    "ELEMENT_SET_NO": "999",
    "REV_AT_EPOCH": "54451",
    "BSTAR": "0.000074431",
    "MEAN_MOTION_DOT": "0.00000157",
    "MEAN_MOTION_DDOT": "0",
    "FILE": "3964919",
    "TLE_LINE0": "0 SARAL",
    "TLE_LINE1": "1 39086U 13009A   23208.89825739  .00000157  00000-0  74431-4 0  9991",
    "TLE_LINE2": "2 39086  98.5486  33.5951 0002509 137.5324 222.6054 14.32238566544515",
    "OBJECT_ID": "2013-009A",
    "OBJECT_NUMBER": "39086",
    "SEMIMAJOR_AXIS": "7162.395",
    "PERIOD": "100.542",
    "APOGEE": "786.057",
    "PERIGEE": "782.463",
    "DECAYED": "0"
  },
  {
    "COMMENT": "GENERATED VIA SPACETRACK.ORG API",
    "ORIGINATOR": "18 SPCS",
    "NORAD_CAT_ID": "39086",
    "OBJECT_NAME": "SARAL",
    "OBJECT_TYPE": "PAYLOAD",
    "CLASSIFICATION_TYPE": "U",
    "INTLDES": "13009A",
    "EPOCH": "2023-07-28 12:38:53",
    "EPOCH_MICROSECONDS": "184480",
    "MEAN_MOTION": "14.32238771",
    "ECCENTRICITY": "0.0002535",
    "INCLINATION": "98.5485",
    "RA_OF_ASC_NODE": "34.2147",
    "ARG_OF_PERICENTER": "136.4068",
    "MEAN_ANOMALY": "223.7317",
    "EPHEMERIS_TYPE": "0",
    "ELEMENT_SET_NO": "999",
    "REV_AT_EPOCH": "54460",
    "BSTAR": "0.000071585",
    "MEAN_MOTION_DOT": "0.00000149",
    "MEAN_MOTION_DDOT": "0",
    "FILE": "3965518",
    "TLE_LINE0": "0 SARAL",
    "TLE_LINE1": "1 39086U 13009A   23209.52700445  .00000149  00000-0  71585-4 0  9996",
    "TLE_LINE2": "2 39086  98.5485  34.2147 0002535 136.4068 223.7317 14.32238771544603",
    "OBJECT_ID": "2013-009A",
    "OBJECT_NUMBER": "39086",
    "SEMIMAJOR_AXIS": "7162.394",
    "PERIOD": "100.542",
    "APOGEE": "786.075",
    "PERIGEE": "782.444",
    "DECAYED": "0"
  },
  {
    "COMMENT": "GENERATED VIA SPACETRACK.ORG API",
    "ORIGINATOR": "18 SPCS",
    "NORAD_CAT_ID": "39086",
    "OBJECT_NAME": "SARAL",
    "OBJECT_TYPE": "PAYLOAD",
    "CLASSIFICATION_TYPE": "U",
    "INTLDES": "13009A",
    "EPOCH": "2023-07-28 19:21:17",
    "EPOCH_MICROSECONDS": "70048",
    "MEAN_MOTION": "14.32238854",
    "ECCENTRICITY": "0.0002545",
    "INCLINATION": "98.5486",
    "RA_OF_ASC_NODE": "34.4901",
    "ARG_OF_PERICENTER": "135.6629",
    "MEAN_ANOMALY": "224.4759",
    "EPHEMERIS_TYPE": "0",
    "ELEMENT_SET_NO": "999",
    "REV_AT_EPOCH": "54464",
    "BSTAR": "0.000070502",
    "MEAN_MOTION_DOT": "0.00000146",
    "MEAN_MOTION_DDOT": "0",
    "FILE": "3965593",
    "TLE_LINE0": "0 SARAL",
    "TLE_LINE1": "1 39086U 13009A   23209.80644757  .00000146  00000-0  70502-4 0  9995",
    "TLE_LINE2": "2 39086  98.5486  34.4901 0002545 135.6629 224.4759 14.32238854544643",
    "OBJECT_ID": "2013-009A",
    "OBJECT_NUMBER": "39086",
    "SEMIMAJOR_AXIS": "7162.394",
    "PERIOD": "100.542",
    "APOGEE": "786.082",
    "PERIGEE": "782.436",
    "DECAYED": "0"
  },
  {
    "COMMENT": "GENERATED VIA SPACETRACK.ORG API",
    "ORIGINATOR": "18 SPCS",
    "NORAD_CAT_ID": "39086",
    "OBJECT_NAME": "SARAL",
    "OBJECT_TYPE": "PAYLOAD",
    "CLASSIFICATION_TYPE": "U",
    "INTLDES": "13009A",
    "EPOCH": "2023-07-30 01:32:04",
    "EPOCH_MICROSECONDS": "510176",
    "MEAN_MOTION": "14.32239497",
    "ECCENTRICITY": "0.00026",
    "INCLINATION": "98.5486",
    "RA_OF_ASC_NODE": "35.7295",
    "ARG_OF_PERICENTER": "133.1432",
    "MEAN_ANOMALY": "226.997",
    "EPHEMERIS_TYPE": "0",
    "ELEMENT_SET_NO": "999",
    "REV_AT_EPOCH": "54482",
    "BSTAR": "0.000075698",
    "MEAN_MOTION_DOT": "0.0000016",
    "MEAN_MOTION_DDOT": "0",
    "FILE": "3966787",
    "TLE_LINE0": "0 SARAL",
    "TLE_LINE1": "1 39086U 13009A   23211.06394109  .00000160  00000-0  75698-4 0  9996",
    "TLE_LINE2": "2 39086  98.5486  35.7295 0002600 133.1432 226.9970 14.32239497544826",
    "OBJECT_ID": "2013-009A",
    "OBJECT_NUMBER": "39086",
    "SEMIMAJOR_AXIS": "7162.392",
    "PERIOD": "100.542",
    "APOGEE": "786.119",
    "PERIGEE": "782.395",
    "DECAYED": "0"
  }
]